[{"OBJECT_NAME":"ONEWEB-0653","OBJECT_ID":"2023-029V","EPOCH":"2026-03-09T16:01:26.670720","MEAN_MOTION":13.14502599,"ECCENTRICITY":0.00014233,"INCLINATION":87.8986,"RA_OF_ASC_NODE":309.5672,"ARG_OF_PERICENTER":80.0629,"MEAN_ANOMALY":280.0662,"EPHEMERIS_TYPE":0,"CLASSIFICATION_TYPE":"U","NORAD_CAT_ID":55815,"ELEMENT_SET_NO":999,"REV_AT_EPOCH":14632,"BSTAR":0.00035798548,"MEAN_MOTION_DOT":1.46e-6,"MEAN_MOTION_DDOT":0},{"OBJECT_NAME":"DELTA 1 DEB","OBJECT_ID":"1973-086AK","EPOCH":"2026-03-09T17:36:07.010208","MEAN_MOTION":12.85395411,"ECCENTRICITY":0.02168748,"INCLINATION":102.1344,"RA_OF_ASC_NODE":124.5832,"ARG_OF_PERICENTER":79.0596,"MEAN_ANOMALY":40.5552,"EPHEMERIS_TYPE":0,"CLASSIFICATION_TYPE":"U","NORAD_CAT_ID":7043,"ELEMENT_SET_NO":999,"REV_AT_EPOCH":45180,"BSTAR":0.00017141441,"MEAN_MOTION_DOT":-4.0e-8,"MEAN_MOTION_DDOT":0}]
